COSMOS 2058             
1 20465U 90010A   26090.23094015  .00006433  00000+0  37788-3 0  9999
2 20465  82.4704  26.2016 0007573 256.3554 103.6833 15.11525481945491
SL-14 R/B               
1 20466U 90010B   26090.20224385  .00000686  00000+0  80166-4 0  9995
2 20466  82.5000 247.1756 0018722 226.0634 133.9037 14.83589804931672
SL-14 R/B               
1 20511U 90018B   26090.30821247  .00000597  00000+0  71883-4 0  9992
2 20511  82.5239 202.8876 0016742  25.6435 334.5606 14.82166868925786
HST                     
1 20580U 90037B   26090.14666398  .00010310  00000+0  33878-3 0  9990
2 20580  28.4719 253.5904 0001890  15.8116 344.2539 15.29823594776600
SL-16 R/B               
1 20625U 90046B   26089.90473427  .00000183  00000+0  11922-3 0  9994
2 20625  70.9980 253.3538 0016409 271.8844  88.0400 14.15017553851391
COSMOS 2084             
1 20663U 90055A   26089.84094927  .00004180  00000+0  30027-3 0  9991
2 20663  62.7893 263.4301 0013685 196.6588 163.4065 15.05772419939501
SL-6 R/B(2)             
1 20666U 90055D   26090.25161159  .00002783  00000+0  21492-3 0  9996
2 20666  62.7836 180.5202 0028336 351.9211   8.1428 15.03700098941433
SL-8 R/B                
1 20775U 90078B   26090.14073503  .00015419  00000+0  45690-3 0  9991
2 20775  82.9028 232.0063 0358126 301.6339  55.0397 14.89701482812495
SL-8 R/B                
1 21088U 91006B   26090.19589644  .00000130  00000+0  11539-3 0  9993
2 21088  82.9441 154.0567 0021690 338.3737  75.3636 13.77497744767035
OKEAN-3                 
1 21397U 91039A   26090.08963867  .00003649  00000+0  25540-3 0  9998
2 21397  82.5158 316.1083 0012437 257.8124 102.1710 15.04929646868258
COSMOS 2151             
1 21422U 91042A   26090.22800069  .00002755  00000+0  21812-3 0  9996
2 21422  82.4948  62.8931 0012097 355.4974   4.6139 15.00200284866424
SL-14 R/B               
1 21423U 91042B   26090.29833193  .00000620  00000+0  75381-4 0  9998
2 21423  82.4957 199.9240 0017422 165.4964 194.6754 14.81851955856275
